{
  "type": "FeatureCollection",
  "features": [
    {
      "type": "Feature",
      "properties": {
        "norad_id": 26766,
        "name": "INTELSAT 10 (IS-10)",
        "group": "intelsat",
        "lat": -4.909050948584499,
        "lon": 26.516693203320898,
        "alt_km": 36134.23232594704,
        "timestamp": "2025-12-03T08:58:45.666487+00:00",
        "meta_object_name": "INTELSAT 10 (IS-10)",
        "meta_object_id": "2001-019A",
        "meta_epoch": "2025-12-02T11:35:38.856768",
        "meta_mean_motion": 0.99077787,
        "meta_eccentricity": 0.00076986,
        "meta_inclination": 8.6036,
        "meta_ra_of_asc_node": 61.2568,
        "meta_arg_of_pericenter": 218.3784,
        "meta_mean_anomaly": 148.6829,
        "meta_ephemeris_type": 0,
        "meta_classification_type": "U",
        "meta_norad_cat_id": 26766,
        "meta_element_set_no": 999,
        "meta_rev_at_epoch": 4363,
        "meta_bstar": 0,
        "meta_mean_motion_dot": -1.25e-06,
        "meta_mean_motion_ddot": 0,
        "tle_line1": "1 26766U 01019A   25336.48308862 -.00000125  00000+0  00000+0 0  9993",
        "tle_line2": "2 26766   8.6036  61.2568 0007698 218.3784 148.6829  0.99077787 43631"
      },
      "geometry": {
        "type": "Point",
        "coordinates": [
          26.516693203320898,
          -4.909050948584499
        ]
      }
    },
    {
      "type": "Feature",
      "properties": {
        "norad_id": 26900,
        "name": "INTELSAT 902 (IS-902)",
        "group": "intelsat",
        "lat": 5.574624046706461,
        "lon": 156.9251274909792,
        "alt_km": 35786.702899188946,
        "timestamp": "2025-12-03T08:58:45.666512+00:00",
        "meta_object_name": "INTELSAT 902 (IS-902)",
        "meta_object_id": "2001-039A",
        "meta_epoch": "2025-12-01T16:59:59.311968",
        "meta_mean_motion": 1.00270327,
        "meta_eccentricity": 0.00043097,
        "meta_inclination": 5.6187,
        "meta_ra_of_asc_node": 74.2002,
        "meta_arg_of_pericenter": 175.119,
        "meta_mean_anomaly": 26.3816,
        "meta_ephemeris_type": 0,
        "meta_classification_type": "U",
        "meta_norad_cat_id": 26900,
        "meta_element_set_no": 999,
        "meta_rev_at_epoch": 8871,
        "meta_bstar": 0,
        "meta_mean_motion_dot": -2.63e-06,
        "meta_mean_motion_ddot": 0,
        "tle_line1": "1 26900U 01039A   25335.70832537 -.00000263  00000+0  00000+0 0  9993",
        "tle_line2": "2 26900   5.6187  74.2002 0004309 175.1190  26.3816  1.00270327 88713"
      },
      "geometry": {
        "type": "Point",
        "coordinates": [
          156.9251274909792,
          5.574624046706461
        ]
      }
    },
    {
      "type": "Feature",
      "properties": {
        "norad_id": 27380,
        "name": "INTELSAT 904 (IS-904)",
        "group": "intelsat",
        "lat": 6.225076479504566,
        "lon": 175.71216476044768,
        "alt_km": 35786.72247441359,
        "timestamp": "2025-12-03T08:58:45.666528+00:00",
        "meta_object_name": "INTELSAT 904 (IS-904)",
        "meta_object_id": "2002-007A",
        "meta_epoch": "2025-12-03T03:19:57.878976",
        "meta_mean_motion": 1.00269372,
        "meta_eccentricity": 0.0001581,
        "meta_inclination": 6.4293,
        "meta_ra_of_asc_node": 71.5412,
        "meta_arg_of_pericenter": 200.7188,
        "meta_mean_anomaly": 178.4698,
        "meta_ephemeris_type": 0,
        "meta_classification_type": "U",
        "meta_norad_cat_id": 27380,
        "meta_element_set_no": 999,
        "meta_rev_at_epoch": 4980,
        "meta_bstar": 0,
        "meta_mean_motion_dot": -2.1e-06,
        "meta_mean_motion_ddot": 0,
        "tle_line1": "1 27380U 02007A   25337.13886434 -.00000210  00000+0  00000+0 0  9998",
        "tle_line2": "2 27380   6.4293  71.5412 0001581 200.7188 178.4698  1.00269372 49801"
      },
      "geometry": {
        "type": "Point",
        "coordinates": [
          175.71216476044768,
          6.225076479504566
        ]
      }
    },
    {
      "type": "Feature",
      "properties": {
        "norad_id": 27426,
        "name": "DIRECTV 5 (TEMPO 1)",
        "group": "intelsat",
        "lat": 1.460695557480551,
        "lon": 96.94959077617534,
        "alt_km": 35801.6074626494,
        "timestamp": "2025-12-03T08:58:45.666542+00:00",
        "meta_object_name": "DIRECTV 5 (TEMPO 1)",
        "meta_object_id": "2002-023A",
        "meta_epoch": "2025-12-02T21:49:20.210880",
        "meta_mean_motion": 1.00271152,
        "meta_eccentricity": 0.0003735,
        "meta_inclination": 4.375,
        "meta_ra_of_asc_node": 77.7678,
        "meta_arg_of_pericenter": 188.6813,
        "meta_mean_anomaly": 22.7679,
        "meta_ephemeris_type": 0,
        "meta_classification_type": "U",
        "meta_norad_cat_id": 27426,
        "meta_element_set_no": 999,
        "meta_rev_at_epoch": 8615,
        "meta_bstar": 0,
        "meta_mean_motion_dot": -3.9e-07,
        "meta_mean_motion_ddot": 0,
        "tle_line1": "1 27426U 02023A   25336.90926170 -.00000039  00000+0  00000+0 0  9992",
        "tle_line2": "2 27426   4.3750  77.7678 0003735 188.6813  22.7679  1.00271152 86159"
      },
      "geometry": {
        "type": "Point",
        "coordinates": [
          96.94959077617534,
          1.460695557480551
        ]
      }
    },
    {
      "type": "Feature",
      "properties": {
        "norad_id": 27438,
        "name": "INTELSAT 905 (IS-905)",
        "group": "intelsat",
        "lat": -0.21530921053992386,
        "lon": 69.96604148751656,
        "alt_km": 35798.537474154495,
        "timestamp": "2025-12-03T08:58:45.666566+00:00",
        "meta_object_name": "INTELSAT 905 (IS-905)",
        "meta_object_id": "2002-027A",
        "meta_epoch": "2025-12-02T09:56:38.679648",
        "meta_mean_motion": 1.00272936,
        "meta_eccentricity": 0.00030691,
        "meta_inclination": 6.2577,
        "meta_ra_of_asc_node": 72.1733,
        "meta_arg_of_pericenter": 187.1236,
        "meta_mean_anomaly": 184.1903,
        "meta_ephemeris_type": 0,
        "meta_classification_type": "U",
        "meta_norad_cat_id": 27438,
        "meta_element_set_no": 999,
        "meta_rev_at_epoch": 4939,
        "meta_bstar": 0,
        "meta_mean_motion_dot": 1.12e-06,
        "meta_mean_motion_ddot": 0,
        "tle_line1": "1 27438U 02027A   25336.41433657  .00000112  00000+0  00000+0 0  9999",
        "tle_line2": "2 27438   6.2577  72.1733 0003069 187.1236 184.1903  1.00272936 49393"
      },
      "geometry": {
        "type": "Point",
        "coordinates": [
          69.96604148751656,
          -0.21530921053992386
        ]
      }
    },
    {
      "type": "Feature",
      "properties": {
        "norad_id": 27445,
        "name": "GALAXY 3C (G-3C)",
        "group": "intelsat",
        "lat": 1.7132421607843298,
        "lon": 112.21927268207901,
        "alt_km": 35784.18263249411,
        "timestamp": "2025-12-03T08:58:45.666590+00:00",
        "meta_object_name": "GALAXY 3C (G-3C)",
        "meta_object_id": "2002-030A",
        "meta_epoch": "2025-12-02T21:53:42.294048",
        "meta_mean_motion": 1.00270323,
        "meta_eccentricity": 0.0001283,
        "meta_inclination": 3.2379,
        "meta_ra_of_asc_node": 80.605,
        "meta_arg_of_pericenter": 98.4026,
        "meta_mean_anomaly": 126.5707,
        "meta_ephemeris_type": 0,
        "meta_classification_type": "U",
        "meta_norad_cat_id": 27445,
        "meta_element_set_no": 999,
        "meta_rev_at_epoch": 4452,
        "meta_bstar": 0,
        "meta_mean_motion_dot": -1.34e-06,
        "meta_mean_motion_ddot": 0,
        "tle_line1": "1 27445U 02030A   25336.91229507 -.00000134  00000+0  00000+0 0  9998",
        "tle_line2": "2 27445   3.2379  80.6050 0001283  98.4026 126.5707  1.00270323 44521"
      },
      "geometry": {
        "type": "Point",
        "coordinates": [
          112.21927268207901,
          1.7132421607843298
        ]
      }
    },
    {
      "type": "Feature",
      "properties": {
        "norad_id": 27513,
        "name": "INTELSAT 906 (IS-906)",
        "group": "intelsat",
        "lat": -1.4769204222994934,
        "lon": -88.78368380337979,
        "alt_km": 35760.09992642484,
        "timestamp": "2025-12-03T08:58:45.666604+00:00",
        "meta_object_name": "INTELSAT 906 (IS-906)",
        "meta_object_id": "2002-041A",
        "meta_epoch": "2025-12-02T23:52:51.743712",
        "meta_mean_motion": 1.0027309,
        "meta_eccentricity": 0.0006114,
        "meta_inclination": 5.3043,
        "meta_ra_of_asc_node": 75.3469,
        "meta_arg_of_pericenter": 191.3579,
        "meta_mean_anomaly": 227.7367,
        "meta_ephemeris_type": 0,
        "meta_classification_type": "U",
        "meta_norad_cat_id": 27513,
        "meta_element_set_no": 999,
        "meta_rev_at_epoch": 8506,
        "meta_bstar": 0,
        "meta_mean_motion_dot": 3e-07,
        "meta_mean_motion_ddot": 0,
        "tle_line1": "1 27513U 02041A   25336.99504333  .00000030  00000+0  00000+0 0  9991",
        "tle_line2": "2 27513   5.3043  75.3469 0006114 191.3579 227.7367  1.00273090 85061"
      },
      "geometry": {
        "type": "Point",
        "coordinates": [
          -88.78368380337979,
          -1.4769204222994934
        ]
      }
    }
  ]
}